start=new Date('2023-02-24T00:00:00.000Z').valueOf();
sats=[{"COUNTRY_CODE":"US","RCS_SIZE":"LARGE","APOAPSIS":"548.175","TIME_SYSTEM":"UTC","PERIAPSIS":"546.367","MEAN_ANOMALY":"273.3416","MEAN_MOTION_DDOT":"0.0000000000000","MEAN_ELEMENT_THEORY":"SGP4","EPOCH":"2023-02-23T00:34:42.754080","INCLINATION":"53.0504","GP_ID":"226564515","TLE_LINE1":"1 46366U 20062AT  23054.02410595  .00007882  00000-0  54770-3 0  9996","REF_FRAME":"TEME","RA_OF_ASC_NODE":"277.5943","LAUNCH_DATE":"2020-09-03","MEAN_MOTION":"15.06381232","FILE":"3828819","OBJECT_TYPE":"PAYLOAD","BSTAR":"0.00054770000000","NORAD_CAT_ID":"46366","OBJECT_NAME":"STARLINK-1651","SEMIMAJOR_AXIS":"6925.406","MEAN_MOTION_DOT":"0.00007882","DECAY_DATE":null,"PERIOD":"95.593","SITE":"AFETR","ELEMENT_SET_NO":"999","CENTER_NAME":"EARTH","TLE_LINE2":"2 46366  53.0504 277.5943 0001305  86.7722 273.3416 15.06381232137538","CLASSIFICATION_TYPE":"U","EPHEMERIS_TYPE":"0","OBJECT_ID":"2020-062AT","REV_AT_EPOCH":"13753","ECCENTRICITY":"0.00013050","ARG_OF_PERICENTER":"86.7722"},{"MEAN_MOTION_DDOT":"0.0000000000000","MEAN_ELEMENT_THEORY":"SGP4","MEAN_ANOMALY":"282.7358","PERIAPSIS":"546.234","TIME_SYSTEM":"UTC","RCS_SIZE":"LARGE","APOAPSIS":"548.090","COUNTRY_CODE":"US","OBJECT_TYPE":"PAYLOAD","BSTAR":"0.00163760000000","FILE":"3829076","MEAN_MOTION":"15.06416899","LAUNCH_DATE":"2020-09-03","RA_OF_ASC_NODE":"299.6025","INCLINATION":"53.0547","GP_ID":"226575099","TLE_LINE1":"1 46368U 20062AV  23054.68617199  .00024206  00000-0  16376-2 0  9997","REF_FRAME":"TEME","EPOCH":"2023-02-23T16:28:05.259936","DECAY_DATE":null,"MEAN_MOTION_DOT":"0.00024206","SEMIMAJOR_AXIS":"6925.297","NORAD_CAT_ID":"46368","OBJECT_NAME":"STARLINK-1658","ARG_OF_PERICENTER":"77.3781","ECCENTRICITY":"0.00013400","OBJECT_ID":"2020-062AV","REV_AT_EPOCH":"13747","TLE_LINE2":"2 46368  53.0547 299.6025 0001340  77.3781 282.7358 15.06416899137473","EPHEMERIS_TYPE":"0","CLASSIFICATION_TYPE":"U","CENTER_NAME":"EARTH","ELEMENT_SET_NO":"999","SITE":"AFETR","PERIOD":"95.591"},{"SITE":"AFETR","ELEMENT_SET_NO":"999","CENTER_NAME":"EARTH","PERIOD":"95.592","ECCENTRICITY":"0.00007880","ARG_OF_PERICENTER":"71.8790","EPHEMERIS_TYPE":"0","TLE_LINE2":"2 46370  53.0535 299.4812 0000788  71.8790 288.2285 15.06402057137470","CLASSIFICATION_TYPE":"U","OBJECT_ID":"2020-062AX","REV_AT_EPOCH":"13747","SEMIMAJOR_AXIS":"6925.342","NORAD_CAT_ID":"46370","OBJECT_NAME":"STARLINK-1670","DECAY_DATE":null,"MEAN_MOTION_DOT":"-0.00001272","RA_OF_ASC_NODE":"299.4812","EPOCH":"2023-02-23T17:11:53.333664","INCLINATION":"53.0535","GP_ID":"226576316","TLE_LINE1":"1 46370U 20062AX  23054.71658951 -.00001272  00000-0 -66544-4 0  9999","REF_FRAME":"TEME","MEAN_MOTION":"15.06402057","FILE":"3829121","BSTAR":"-0.00006654400000","OBJECT_TYPE":"PAYLOAD","LAUNCH_DATE":"2020-09-03","RCS_SIZE":"LARGE","APOAPSIS":"547.753","TIME_SYSTEM":"UTC","COUNTRY_CODE":"US","MEAN_ANOMALY":"288.2285","MEAN_MOTION_DDOT":"0.0000000000000","MEAN_ELEMENT_THEORY":"SGP4","PERIAPSIS":"546.662"},{"LAUNCH_DATE":"2020-09-03","MEAN_MOTION":"15.06395829","FILE":"3829143","OBJECT_TYPE":"PAYLOAD","BSTAR":"-0.00025723000000","EPOCH":"2023-02-23T17:01:16.399776","TLE_LINE1":"1 46371U 20062AY  23054.70921759 -.00004110  00000-0 -25723-3 0  9995","REF_FRAME":"TEME","GP_ID":"226577071","INCLINATION":"53.0518","RA_OF_ASC_NODE":"299.5195","PERIAPSIS":"546.627","MEAN_ANOMALY":"277.2724","MEAN_ELEMENT_THEORY":"SGP4","MEAN_MOTION_DDOT":"0.0000000000000","COUNTRY_CODE":"US","RCS_SIZE":"LARGE","APOAPSIS":"547.825","TIME_SYSTEM":"UTC","TLE_LINE2":"2 46371  53.0518 299.5195 0000865  82.8363 277.2724 15.06395829137475","EPHEMERIS_TYPE":"0","CLASSIFICATION_TYPE":"U","REV_AT_EPOCH":"13747","OBJECT_ID":"2020-062AY","ECCENTRICITY":"0.00008650","ARG_OF_PERICENTER":"82.8363","PERIOD":"95.592","ELEMENT_SET_NO":"999","SITE":"AFETR","CENTER_NAME":"EARTH","MEAN_MOTION_DOT":"-0.00004110","DECAY_DATE":null,"OBJECT_NAME":"STARLINK-1688","NORAD_CAT_ID":"46371","SEMIMAJOR_AXIS":"6925.361"},{"PERIAPSIS":"546.291","MEAN_ANOMALY":"256.0676","MEAN_ELEMENT_THEORY":"SGP4","MEAN_MOTION_DDOT":"0.0000000000000","COUNTRY_CODE":"US","RCS_SIZE":"LARGE","APOAPSIS":"548.145","TIME_SYSTEM":"UTC","LAUNCH_DATE":"2020-09-03","MEAN_MOTION":"15.06398574","FILE":"3829174","OBJECT_TYPE":"PAYLOAD","BSTAR":"0.00031651000000","EPOCH":"2023-02-23T17:14:32.834112","REF_FRAME":"TEME","TLE_LINE1":"1 46372U 20062AZ  23054.71843558  .00004436  00000-0  31651-3 0  9993","INCLINATION":"53.0531","GP_ID":"226578141","RA_OF_ASC_NODE":"319.4783","MEAN_MOTION_DOT":"0.00004436","DECAY_DATE":null,"OBJECT_NAME":"STARLINK-1689","NORAD_CAT_ID":"46372","SEMIMAJOR_AXIS":"6925.353","TLE_LINE2":"2 46372  53.0531 319.4783 0001339 104.0462 256.0676 15.06398574137190","EPHEMERIS_TYPE":"0","CLASSIFICATION_TYPE":"U","REV_AT_EPOCH":"13719","OBJECT_ID":"2020-062AZ","ECCENTRICITY":"0.00013390","ARG_OF_PERICENTER":"104.0462","PERIOD":"95.592","SITE":"AFETR","ELEMENT_SET_NO":"999","CENTER_NAME":"EARTH"},{"NORAD_CAT_ID":"46374","OBJECT_NAME":"STARLINK-1711","SEMIMAJOR_AXIS":"6927.887","MEAN_MOTION_DOT":"0.00027316","DECAY_DATE":null,"PERIOD":"95.645","SITE":"AFETR","ELEMENT_SET_NO":"999","CENTER_NAME":"EARTH","EPHEMERIS_TYPE":"0","TLE_LINE2":"2 46374  53.0518 248.3787 0001930 140.7262 243.4058 15.05572253138195","CLASSIFICATION_TYPE":"U","OBJECT_ID":"2020-062BB","REV_AT_EPOCH":"13819","ECCENTRICITY":"0.00019300","ARG_OF_PERICENTER":"140.7262","COUNTRY_CODE":"US","RCS_SIZE":"LARGE","APOAPSIS":"551.089","TIME_SYSTEM":"UTC","PERIAPSIS":"548.415","MEAN_ANOMALY":"243.4058","MEAN_MOTION_DDOT":"0.0000000000000","MEAN_ELEMENT_THEORY":"SGP4","EPOCH":"2023-02-23T22:00:00.999936","GP_ID":"226577105","INCLINATION":"53.0518","REF_FRAME":"TEME","TLE_LINE1":"1 46374U 20062BB  23054.91667824  .00027316  00000-0  18871-2 0  9997","RA_OF_ASC_NODE":"248.3787","LAUNCH_DATE":"2020-09-03","MEAN_MOTION":"15.05572253","FILE":"3829147","OBJECT_TYPE":"PAYLOAD","BSTAR":"0.00188710000000"},{"SEMIMAJOR_AXIS":"6925.355","OBJECT_NAME":"STARLINK-1724","NORAD_CAT_ID":"46375","DECAY_DATE":null,"MEAN_MOTION_DOT":"0.00016323","SITE":"AFETR","ELEMENT_SET_NO":"999","CENTER_NAME":"EARTH","PERIOD":"95.592","ECCENTRICITY":"0.00010990","ARG_OF_PERICENTER":"75.3508","CLASSIFICATION_TYPE":"U","TLE_LINE2":"2 46375  53.0528 274.9357 0001099  75.3508 284.7602 15.06398047137625","EPHEMERIS_TYPE":"0","REV_AT_EPOCH":"13762","OBJECT_ID":"2020-062BC","RCS_SIZE":"LARGE","APOAPSIS":"547.981","TIME_SYSTEM":"UTC","COUNTRY_CODE":"US","MEAN_ANOMALY":"284.7602","MEAN_ELEMENT_THEORY":"SGP4","MEAN_MOTION_DDOT":"0.0000000000000","PERIAPSIS":"546.458","RA_OF_ASC_NODE":"274.9357","EPOCH":"2023-02-23T14:43:57.923904","TLE_LINE1":"1 46375U 20062BC  23054.61386486  .00016323  00000-0  11122-2 0  9995","REF_FRAME":"TEME","INCLINATION":"53.0528","GP_ID":"226565517","MEAN_MOTION":"15.06398047","FILE":"3828819","OBJECT_TYPE":"PAYLOAD","BSTAR":"0.00111220000000","LAUNCH_DATE":"2020-09-03"},{"ARG_OF_PERICENTER":"100.5088","ECCENTRICITY":"0.00009940","REV_AT_EPOCH":"13784","OBJECT_ID":"2020-062BD","TLE_LINE2":"2 46376  53.0515 273.6880 0000994 100.5088 259.6013 15.06406149137840","CLASSIFICATION_TYPE":"U","EPHEMERIS_TYPE":"0","CENTER_NAME":"EARTH","SITE":"AFETR","ELEMENT_SET_NO":"999","PERIOD":"95.592","DECAY_DATE":null,"MEAN_MOTION_DOT":"0.00016468","SEMIMAJOR_AXIS":"6925.330","OBJECT_NAME":"STARLINK-1742","NORAD_CAT_ID":"46376","BSTAR":"0.00112170000000","OBJECT_TYPE":"PAYLOAD","FILE":"3829294","MEAN_MOTION":"15.06406149","LAUNCH_DATE":"2020-09-03","RA_OF_ASC_NODE":"273.6880","TLE_LINE1":"1 46376U 20062BD  23054.89398857  .00016468  00000-0  11217-2 0  9996","REF_FRAME":"TEME","INCLINATION":"53.0515","GP_ID":"226580384","EPOCH":"2023-02-23T21:27:20.612448","MEAN_ELEMENT_THEORY":"SGP4","MEAN_MOTION_DDOT":"0.0000000000000","MEAN_ANOMALY":"259.6013","PERIAPSIS":"546.506","TIME_SYSTEM":"UTC","RCS_SIZE":"LARGE","APOAPSIS":"547.883","COUNTRY_CODE":"US"},{"DECAY_DATE":null,"MEAN_MOTION_DOT":"-0.00004440","SEMIMAJOR_AXIS":"6925.414","NORAD_CAT_ID":"46380","OBJECT_NAME":"STARLINK-1758","ARG_OF_PERICENTER":"104.6261","ECCENTRICITY":"0.00006700","OBJECT_ID":"2020-062BH","REV_AT_EPOCH":"13720","EPHEMERIS_TYPE":"0","TLE_LINE2":"2 46380  53.0515 302.1170 0000670 104.6261 255.4802 15.06378530137206","CLASSIFICATION_TYPE":"U","CENTER_NAME":"EARTH","ELEMENT_SET_NO":"999","SITE":"AFETR","PERIOD":"95.594","MEAN_MOTION_DDOT":"0.0000000000000","MEAN_ELEMENT_THEORY":"SGP4","MEAN_ANOMALY":"255.4802","PERIAPSIS":"546.815","TIME_SYSTEM":"UTC","APOAPSIS":"547.743","RCS_SIZE":"LARGE","COUNTRY_CODE":"US","BSTAR":"-0.00027957000000","OBJECT_TYPE":"PAYLOAD","MEAN_MOTION":"15.06378530","FILE":"3828819","LAUNCH_DATE":"2020-09-03","RA_OF_ASC_NODE":"302.1170","GP_ID":"226564516","INCLINATION":"53.0515","TLE_LINE1":"1 46380U 20062BH  23054.13054013 -.00004440  00000-0 -27957-3 0  9999","REF_FRAME":"TEME","EPOCH":"2023-02-23T03:07:58.667232"},{"PERIOD":"95.592","ELEMENT_SET_NO":"999","SITE":"AFETR","CENTER_NAME":"EARTH","TLE_LINE2":"2 46382  53.0514 273.6207 0000719 100.4765 259.6305 15.06400513137826","EPHEMERIS_TYPE":"0","CLASSIFICATION_TYPE":"U","REV_AT_EPOCH":"13782","OBJECT_ID":"2020-062BK","ECCENTRICITY":"0.00007190","ARG_OF_PERICENTER":"100.4765","NORAD_CAT_ID":"46382","OBJECT_NAME":"STARLINK-1769","SEMIMAJOR_AXIS":"6925.347","MEAN_MOTION_DOT":"0.00026057","DECAY_DATE":null,"EPOCH":"2023-02-23T21:48:35.241408","INCLINATION":"53.0514","GP_ID":"226580978","REF_FRAME":"TEME","TLE_LINE1":"1 46382U 20062BK  23054.90874122  .00026057  00000-0  17617-2 0  9994","RA_OF_ASC_NODE":"273.6207","LAUNCH_DATE":"2020-09-03","MEAN_MOTION":"15.06400513","FILE":"3829307","OBJECT_TYPE":"PAYLOAD","BSTAR":"0.00176170000000","COUNTRY_CODE":"US","RCS_SIZE":"LARGE","APOAPSIS":"547.710","TIME_SYSTEM":"UTC","PERIAPSIS":"546.714","MEAN_ANOMALY":"259.6305","MEAN_MOTION_DDOT":"0.0000000000000","MEAN_ELEMENT_THEORY":"SGP4"}];
